NAVSTAR 77 (USA 289)    
1 43873U 18109A   24234.67628338  .00000017  00000+0  00000+0 0  9998
2 43873  55.3195 118.4397 0030074 192.9516   1.5429  2.00558694 41695
